{"type": "FeatureCollection", "features": [ {"type": "Feature", "properties": {"norad_id": 67080, "name": "STARLINK-36158", "group": "last-30-days", "lat": -24.512397257978414, "lon": -152.28098089564506, "alt_km": 321.5744860344221, "timestamp": "2025-12-24T05:51:18.329072+00:00", "meta": {"OBJECT_NAME": "STARLINK-36158", "OBJECT_ID": "2025-298F", "EPOCH": "2025-12-23T22:00:01.999584", "MEAN_MOTION": 15.85701594, "ECCENTRICITY": 0.00038318, "INCLINATION": 69.9965, "RA_OF_ASC_NODE": 218.2219, "ARG_OF_PERICENTER": 273.4319, "MEAN_ANOMALY": 353.5044, "EPHEMERIS_TYPE": 0, "CLASSIFICATION_TYPE": "U", "NORAD_CAT_ID": 67080, "ELEMENT_SET_NO": 999, "REV_AT_EPOCH": 271, "BSTAR": -0.0079819469, "MEAN_MOTION_DOT": -0.0169045, "MEAN_MOTION_DDOT": 0}, "tle": {"line1": "1 67080U 25298F   25357.91668981 -.01690450  00000+0 -79819-2 0  9999", "line2": "2 67080  69.9965 218.2219 0003831 273.4319 353.5044 15.85701594  2715"}}, "geometry": {"type": "Point", "coordinates": [-152.28098089564506, -24.512397257978414]}}, {"type": "Feature", "properties": {"norad_id": 67081, "name": "STARLINK-35864", "group": "last-30-days", "lat": -22.68565652770993, "lon": -151.48031610152722, "alt_km": 321.57968435721796, "timestamp": "2025-12-24T05:51:18.329081+00:00", "meta": {"OBJECT_NAME": "STARLINK-35864", "OBJECT_ID": "2025-298G", "EPOCH": "2025-12-23T22:00:01.999584", "MEAN_MOTION": 15.85706655, "ECCENTRICITY": 0.00038076, "INCLINATION": 69.9967, "RA_OF_ASC_NODE": 218.2196, "ARG_OF_PERICENTER": 272.0304, "MEAN_ANOMALY": 356.8746, "EPHEMERIS_TYPE": 0, "CLASSIFICATION_TYPE": "U", "NORAD_CAT_ID": 67081, "ELEMENT_SET_NO": 999, "REV_AT_EPOCH": 277, "BSTAR": -0.0080325011, "MEAN_MOTION_DOT": -0.01700064, "MEAN_MOTION_DDOT": 0}, "tle": {"line1": "1 67081U 25298G   25357.91668981 -.01700064  00000+0 -80325-2 0  9997", "line2": "2 67081  69.9967 218.2196 0003807 272.0304 356.8746 15.85706655  2778"}}, "geometry": {"type": "Point", "coordinates": [-151.48031610152722, -22.68565652770993]}}, {"type": "Feature", "properties": {"norad_id": 67082, "name": "STARLINK-36035", "group": "last-30-days", "lat": -20.749514481821084, "lon": -150.656537999006, "alt_km": 321.4949614111547, "timestamp": "2025-12-24T05:51:18.329093+00:00", "meta": {"OBJECT_NAME": "STARLINK-36035", "OBJECT_ID": "2025-298H", "EPOCH": "2025-12-23T22:00:01.999584", "MEAN_MOTION": 15.85698492, "ECCENTRICITY": 0.00037813, "INCLINATION": 69.9966, "RA_OF_ASC_NODE": 218.2173, "ARG_OF_PERICENTER": 272.8506, "MEAN_ANOMALY": 358.1475, "EPHEMERIS_TYPE": 0, "CLASSIFICATION_TYPE": "U", "NORAD_CAT_ID": 67082, "ELEMENT_SET_NO": 999, "REV_AT_EPOCH": 277, "BSTAR": -0.0080301772, "MEAN_MOTION_DOT": -0.01699018, "MEAN_MOTION_DDOT": 0}, "tle": {"line1": "1 67082U 25298H   25357.91668981 -.01699018  00000+0 -80302-2 0  9999", "line2": "2 67082  69.9966 218.2173 0003781 272.8506 358.1475 15.85698492  2779"}}, "geometry": {"type": "Point", "coordinates": [-150.656537999006, -20.749514481821084]}}, {"type": "Feature", "properties": {"norad_id": 67083, "name": "STARLINK-36170", "group": "last-30-days", "lat": -18.768983021317844, "lon": -149.83746387706034, "alt_km": 321.48414636408233, "timestamp": "2025-12-24T05:51:18.329105+00:00", "meta": {"OBJECT_NAME": "STARLINK-36170", "OBJECT_ID": "2025-298J", "EPOCH": "2025-12-23T22:00:01.999584", "MEAN_MOTION": 15.85695966, "ECCENTRICITY": 0.00038639, "INCLINATION": 69.9965, "RA_OF_ASC_NODE": 218.2146, "ARG_OF_PERICENTER": 270.6577, "MEAN_ANOMALY": 2.468, "EPHEMERIS_TYPE": 0, "CLASSIFICATION_TYPE": "U", "NORAD_CAT_ID": 67083, "ELEMENT_SET_NO": 999, "REV_AT_EPOCH": 277, "BSTAR": -0.0080239274, "MEAN_MOTION_DOT": -0.01697794, "MEAN_MOTION_DDOT": 0}, "tle": {"line1": "1 67083U 25298J   25357.91668981 -.01697794  00000+0 -80239-2 0  9998", "line2": "2 67083  69.9965 218.2146 0003863 270.6577   2.4680 15.85695966  2774"}}, "geometry": {"type": "Point", "coordinates": [-149.83746387706034, -18.768983021317844]}}, {"type": "Feature", "properties": {"norad_id": 67084, "name": "STARLINK-36166", "group": "last-30-days", "lat": -16.89180306794234, "lon": -149.08013715115595, "alt_km": 321.3309685614786, "timestamp": "2025-12-24T05:51:18.329115+00:00", "meta": {"OBJECT_NAME": "STARLINK-36166", "OBJECT_ID": "2025-298K", "EPOCH": "2025-12-23T22:00:01.999584", "MEAN_MOTION": 15.85690347, "ECCENTRICITY": 0.00038187, "INCLINATION": 69.9964, "RA_OF_ASC_NODE": 218.212, "ARG_OF_PERICENTER": 272.8473, "MEAN_ANOMALY": 2.2996, "EPHEMERIS_TYPE": 0, "CLASSIFICATION_TYPE": "U", "NORAD_CAT_ID": 67084, "ELEMENT_SET_NO": 999, "REV_AT_EPOCH": 271, "BSTAR": -0.0080397948, "MEAN_MOTION_DOT": -0.01700241, "MEAN_MOTION_DDOT": 0}, "tle": {"line1": "1 67084U 25298K   25357.91668981 -.01700241  00000+0 -80398-2 0  9997", "line2": "2 67084  69.9964 218.2120 0003818 272.8473   2.2996 15.85690347  2715"}}, "geometry": {"type": "Point", "coordinates": [-149.08013715115595, -16.89180306794234]}}, {"type": "Feature", "properties": {"norad_id": 67085, "name": "STARLINK-35794", "group": "last-30-days", "lat": -15.039207292641866, "lon": -148.34821457434353, "alt_km": 321.74282884306285, "timestamp": "2025-12-24T05:51:18.329125+00:00", "meta": {"OBJECT_NAME": "STARLINK-35794", "OBJECT_ID": "2025-298L", "EPOCH": "2025-12-23T22:00:01.999584", "MEAN_MOTION": 15.8563599, "ECCENTRICITY": 0.00038901, "INCLINATION": 69.9965, "RA_OF_ASC_NODE": 218.2096, "ARG_OF_PERICENTER": 261.9853, "MEAN_ANOMALY": 15.178, "EPHEMERIS_TYPE": 0, "CLASSIFICATION_TYPE": "U", "NORAD_CAT_ID": 67085, "ELEMENT_SET_NO": 999, "REV_AT_EPOCH": 277, "BSTAR": -0.0077518653, "MEAN_MOTION_DOT": -0.01643458, "MEAN_MOTION_DDOT": 0}, "tle": {"line1": "1 67085U 25298L   25357.91668981 -.01643458  00000+0 -77519-2 0  9995", "line2": "2 67085  69.9965 218.2096 0003890 261.9853  15.1780 15.85635990  2773"}}, "geometry": {"type": "Point", "coordinates": [-148.34821457434353, -15.039207292641866]}}, {"type": "Feature", "properties": {"norad_id": 67086, "name": "STARLINK-35841", "group": "last-30-days", "lat": -12.962117659971806, "lon": -147.54367325837347, "alt_km": 321.32716569945933, "timestamp": "2025-12-24T05:51:18.329135+00:00", "meta": {"OBJECT_NAME": "STARLINK-35841", "OBJECT_ID": "2025-298M", "EPOCH": "2025-12-23T22:00:01.999584", "MEAN_MOTION": 15.85675015, "ECCENTRICITY": 0.00037479, "INCLINATION": 69.9964, "RA_OF_ASC_NODE": 218.207, "ARG_OF_PERICENTER": 269.1076, "MEAN_ANOMALY": 10.258, "EPHEMERIS_TYPE": 0, "CLASSIFICATION_TYPE": "U", "NORAD_CAT_ID": 67086, "ELEMENT_SET_NO": 999, "REV_AT_EPOCH": 277, "BSTAR": -0.0080184965, "MEAN_MOTION_DOT": -0.01695146, "MEAN_MOTION_DDOT": 0}, "tle": {"line1": "1 67086U 25298M   25357.91668981 -.01695146  00000+0 -80185-2 0  9990", "line2": "2 67086  69.9964 218.2070 0003747 269.1076  10.2580 15.85675015  2779"}}, "geometry": {"type": "Point", "coordinates": [-147.54367325837347, -12.962117659971806]}}, {"type": "Feature", "properties": {"norad_id": 67087, "name": "STARLINK-35842", "group": "last-30-days", "lat": -11.352197936108105, "lon": -146.9302529654631, "alt_km": 321.7192934975719, "timestamp": "2025-12-24T05:51:18.329144+00:00", "meta": {"OBJECT_NAME": "STARLINK-35842", "OBJECT_ID": "2025-298N", "EPOCH": "2025-12-23T22:00:01.999584", "MEAN_MOTION": 15.85827394, "ECCENTRICITY": 0.00038961, "INCLINATION": 69.9963, "RA_OF_ASC_NODE": 218.2047, "ARG_OF_PERICENTER": 271.2534, "MEAN_ANOMALY": 9.8783, "EPHEMERIS_TYPE": 0, "CLASSIFICATION_TYPE": "U", "NORAD_CAT_ID": 67087, "ELEMENT_SET_NO": 999, "REV_AT_EPOCH": 277, "BSTAR": -0.010486057, "MEAN_MOTION_DOT": -0.02198012, "MEAN_MOTION_DDOT": 0}, "tle": {"line1": "1 67087U 25298N   25357.91668981 -.02198012  00000+0 -10486-1 0  9998", "line2": "2 67087  69.9963 218.2047 0003896 271.2534   9.8783 15.85827394  2779"}}, "geometry": {"type": "Point", "coordinates": [-146.9302529654631, -11.352197936108105]}}, {"type": "Feature", "properties": {"norad_id": 67088, "name": "STARLINK-35882", "group": "last-30-days", "lat": -9.257983973831244, "lon": -146.1427238213388, "alt_km": 320.97157388769483, "timestamp": "2025-12-24T05:51:18.329154+00:00", "meta": {"OBJECT_NAME": "STARLINK-35882", "OBJECT_ID": "2025-298P", "EPOCH": "2025-12-23T22:00:01.999584", "MEAN_MOTION": 15.85676991, "ECCENTRICITY": 0.00037348, "INCLINATION": 69.9967, "RA_OF_ASC_NODE": 218.2022, "ARG_OF_PERICENTER": 271.9682, "MEAN_ANOMALY": 11.3504, "EPHEMERIS_TYPE": 0, "CLASSIFICATION_TYPE": "U", "NORAD_CAT_ID": 67088, "ELEMENT_SET_NO": 999, "REV_AT_EPOCH": 277, "BSTAR": -0.0080379124, "MEAN_MOTION_DOT": -0.01698829, "MEAN_MOTION_DDOT": 0}, "tle": {"line1": "1 67088U 25298P   25357.91668981 -.01698829  00000+0 -80379-2 0  9998", "line2": "2 67088  69.9967 218.2022 0003734 271.9682  11.3504 15.85676991  2773"}}, "geometry": {"type": "Point", "coordinates": [-146.1427238213388, -9.257983973831244]}}, {"type": "Feature", "properties": {"norad_id": 67089, "name": "STARLINK-35763", "group": "last-30-days", "lat": -7.199107820985571, "lon": -145.37876856107167, "alt_km": 320.93581075242855, "timestamp": "2025-12-24T05:51:18.329164+00:00", "meta": {"OBJECT_NAME": "STARLINK-35763", "OBJECT_ID": "2025-298Q", "EPOCH": "2025-12-23T22:00:01.999584", "MEAN_MOTION": 15.85669524, "ECCENTRICITY": 0.00038186, "INCLINATION": 69.9964, "RA_OF_ASC_NODE": 218.1993, "ARG_OF_PERICENTER": 269.9459, "MEAN_ANOMALY": 15.5751, "EPHEMERIS_TYPE": 0, "CLASSIFICATION_TYPE": "U", "NORAD_CAT_ID": 67089, "ELEMENT_SET_NO": 999, "REV_AT_EPOCH": 277, "BSTAR": -0.0080469811, "MEAN_MOTION_DOT": -0.01700058, "MEAN_MOTION_DDOT": 0}, "tle": {"line1": "1 67089U 25298Q   25357.91668981 -.01700058  00000+0 -80470-2 0  9999", "line2": "2 67089  69.9964 218.1993 0003818 269.9459  15.5751 15.85669524  2773"}}, "geometry": {"type": "Point", "coordinates": [-145.37876856107167, -7.199107820985571]}}]}